NORAD_CAT_ID,OBJECT_NAME,OBJECT_TYPE,EPOCH,MEAN_MOTION,ECCENTRICITY,INCLINATION,RA_OF_ASC_NODE,ARG_OF_PERICENTER,MEAN_ANOMALY,BSTAR,MEAN_MOTION_DOT,MEAN_MOTION_DDOT,TLE_LINE0,TLE_LINE1,TLE_LINE2,SEMIMAJOR_AXIS,PERIOD,APOGEE,PERIGEE,DECAYED
52582.0,STARLINK-3886,PAYLOAD,2022-12-28 07:59:10,15.0884966,0.0002206,53.2197,319.5912,20.5322,339.5759,9.2738e-05,1.188e-05,0.0,0 STARLINK-3886,1 52582U 22051AY  22362.33275668  .00001188  00000-0  92738-4 0  9998,2 52582  53.2197 319.5912 0002206  20.5322 339.5759 15.08849660 35359,6917.851,95.437,541.242,538.19,0.0
52582.0,STARLINK-3886,PAYLOAD,2022-12-29 06:14:36,15.08833418,0.0003347,53.2198,315.4269,34.5985,325.5224,-0.00015017,-2.678e-05,0.0,0 STARLINK-3886,1 52582U 22051AY  22363.26014420 -.00002678  00000-0 -15017-3 0  9999,2 52582  53.2198 315.4269 0003347  34.5985 325.5224 15.08833418 35566,6917.901,95.438,542.081,537.45,0.0
52582.0,STARLINK-3886,PAYLOAD,2022-12-30 04:29:58,15.08849701,0.0002389,53.2186,311.2671,32.0055,328.1082,5.3371e-05,5.61e-06,0.0,0 STARLINK-3886,1 52582U 22051AY  22364.18748653  .00000561  00000-0  53371-4 0  9996,2 52582  53.2186 311.2671 0002389  32.0055 328.1082 15.08849701 35709,6917.851,95.437,541.368,538.063,0.0
52582.0,STARLINK-3886,PAYLOAD,2022-12-30 06:05:22,15.08847361,0.0002907999999999,53.2183,310.9694,29.5575,330.5581,3.8541e-05,3.25e-06,0.0,0 STARLINK-3886,1 52582U 22051AY  22364.25372951  .00000325  00000-0  38541-4 0  9998,2 52582  53.2183 310.9694 0002908  29.5575 330.5581 15.08847361 35646,6917.858,95.437,541.735,537.711,0.0
52582.0,STARLINK-3886,PAYLOAD,2022-12-31 05:56:07,15.08853909,0.0002714,53.2183,306.5069,34.3002,325.8165,0.00030014,4.493e-05,0.0,0 STARLINK-3886,1 52582U 22051AY  22365.24731371  .00004493  00000-0  30014-3 0  9999,2 52582  53.2183 306.5069 0002714  34.3002 325.8165 15.08853909 35861,6917.8380000000025,95.437,541.58,537.825,0.0
52582.0,STARLINK-3886,PAYLOAD,2022-12-31 13:53:03,15.08850577,0.0002688,53.2168,305.0209,30.1479,329.9668,0.0002028,2.942e-05,0.0,0 STARLINK-3886,1 52582U 22051AY  22365.57851628  .00002942  00000-0  20280-3 0  9994,2 52582  53.2168 305.0209 0002688  30.1479 329.9668 15.08850577 35913,6917.848000000001,95.437,541.573,537.854,0.0
52582.0,STARLINK-3886,PAYLOAD,2023-01-01 05:46:56,15.08836426,0.0002731999999999,53.2183,302.0487,24.2757,335.8363,-0.00012751,-2.317e-05,0.0,0 STARLINK-3886,1 52582U 22051AY  23001.24093582 -.00002317  00000-0 -12751-3 0  9995,2 52582  53.2183 302.0487 0002732  24.2757 335.8363 15.08836426 36015,6917.891,95.438,541.646,537.866,0.0
52582.0,STARLINK-3886,PAYLOAD,2023-01-01 20:05:26,15.088235999999998,0.0002702,53.2179,299.3712,27.1258,332.9875,-0.00029467,-4.973e-05,0.0,0 STARLINK-3886,1 52582U 22051AY  23001.83711240 -.00004973  00000-0 -29467-3 0  9990,2 52582  53.2179 299.3712 0002702  27.1258 332.9875 15.08823600 36032,6917.931,95.439,541.665,537.9259999999998,0.0
52582.0,STARLINK-3886,PAYLOAD,2023-01-02 11:59:16,15.08849157,0.0002651,53.219,296.3971,29.4656,330.6485,-7.0158e-05,-1.405e-05,0.0,0 STARLINK-3886,1 52582U 22051AY  23002.49949223 -.00001405  00000-0 -70158-4 0  9998,2 52582  53.2190 296.3971 0002651  29.4656 330.6485 15.08849157 36205,6917.852,95.437,541.5509999999998,537.883,0.0
52582.0,STARLINK-3886,PAYLOAD,2023-01-03 05:28:31,15.08823046,0.0002655,53.2186,293.1272,26.262,333.8506,0.00011575,1.553e-05,0.0,0 STARLINK-3886,1 52582U 22051AY  23003.22814661  .00001553  00000-0  11575-3 0  9996,2 52582  53.2186 293.1272 0002655  26.2620 333.8506 15.08823046 36319,6917.932,95.439,541.634,537.961,0.0
52582.0,STARLINK-3886,PAYLOAD,2023-01-03 11:50:04,15.08824098,0.0002675,53.2187,291.9379,27.2418,332.8714,9.9603e-05,1.296e-05,0.0,0 STARLINK-3886,1 52582U 22051AY  23003.49310946  .00001296  00000-0  99603-4 0  9995,2 52582  53.2187 291.9379 0002675  27.2418 332.8714 15.08824098 36286,6917.929,95.439,541.645,537.943,0.0
52582.0,STARLINK-3886,PAYLOAD,2023-01-04 11:40:51,15.0884396,0.0002579,53.2183,287.4773,26.3386,333.7736,0.00013486,1.859e-05,0.0,0 STARLINK-3886,1 52582U 22051AY  23004.48670289  .00001859  00000-0  13486-3 0  9993,2 52582  53.2183 287.4773 0002579  26.3386 333.7736 15.08843960 36437,6917.868,95.437,541.5169999999998,537.9490000000002,0.0
52582.0,STARLINK-3886,PAYLOAD,2023-01-05 11:31:35,15.08867787,0.0002781,53.2193,283.0169,30.5499,329.5655,0.00035701,5.402e-05,0.0,0 STARLINK-3886,1 52582U 22051AY  23005.48027528  .00005402  00000-0  35701-3 0  9998,2 52582  53.2193 283.0169 0002781  30.5499 329.5655 15.08867787 36656,6917.795,95.436,541.5840000000002,537.737,0.0
52582.0,STARLINK-3886,PAYLOAD,2023-01-05 19:28:32,15.08855006,0.0002581,53.2184,281.5287,27.6686,332.4443,0.00011607,1.56e-05,0.0,0 STARLINK-3886,1 52582U 22051AY  23005.81148558  .00001560  00000-0  11607-3 0  9992,2 52582  53.2184 281.5287 0002581  27.6686 332.4443 15.08855006 36630,6917.835,95.437,541.485,537.914,0.0
52582.0,STARLINK-3886,PAYLOAD,2023-01-06 05:00:52,15.08841281,0.0002653,53.2183,279.7468,25.5802,334.5321,1.885e-05,1.2e-07,0.0,0 STARLINK-3886,1 52582U 22051AY  23006.20893574  .00000012  00000-0  18850-4 0  9990,2 52582  53.2183 279.7468 0002653  25.5802 334.5321 15.08841281 36768,6917.876,95.437,541.577,537.906,0.0
52582.0,STARLINK-3886,PAYLOAD,2023-01-06 11:22:25,15.08831626,0.0002495,53.2172,278.5572,25.851,334.2606,-8.4786e-05,-1.637e-05,0.0,0 STARLINK-3886,1 52582U 22051AY  23006.47390502 -.00001637  00000-0 -84786-4 0  9999,2 52582  53.2172 278.5572 0002495  25.8510 334.2606 15.08831626 36802,6917.906,95.438,541.497,538.045,0.0
52582.0,STARLINK-3886,PAYLOAD,2023-01-07 00:05:30,15.08839373,0.000242,53.2195,276.1779,21.1313,338.9778,-0.00010272,-1.923e-05,0.0,0 STARLINK-3886,1 52582U 22051AY  23007.00381958 -.00001923  00000-0 -10272-3 0  9990,2 52582  53.2195 276.1779 0002420  21.1313 338.9778 15.08839373 36884,6917.882,95.438,541.4209999999998,538.073,0.0
52582.0,STARLINK-3886,PAYLOAD,2023-01-07 11:13:10,15.08855713,0.0002595,53.2178,274.0973,29.4695,330.6443,1.939e-05,2e-07,0.0,0 STARLINK-3886,1 52582U 22051AY  23007.46748332  .00000020  00000-0  19390-4 0  9999,2 52582  53.2178 274.0973 0002595  29.4695 330.6443 15.08855713 36957,6917.831999999999,95.437,541.493,537.9019999999998,0.0
52582.0,STARLINK-3886,PAYLOAD,2023-01-07 17:34:43,15.08845847,0.0002796,53.2184,272.906,34.5405,325.5769,1.3911e-05,-6.7e-07,0.0,0 STARLINK-3886,1 52582U 22051AY  23007.73244887 -.00000067  00000-0  13911-4 0  9990,2 52582  53.2184 272.9060 0002796  34.5405 325.5769 15.08845847 36992,6917.863,95.437,541.6619999999998,537.793,0.0
52582.0,STARLINK-3886,PAYLOAD,2023-01-08 03:07:02,15.08833233,0.0003076,53.2168,271.1239,20.5703,339.5412,0.00010465,1.377e-05,0.0,0 STARLINK-3886,1 52582U 22051AY  23008.12989529  .00001377  00000-0  10465-3 0  9997,2 52582  53.2168 271.1239 0003076  20.5703 339.5412 15.08833233 37055,6917.901,95.438,541.894,537.638,0.0
52582.0,STARLINK-3886,PAYLOAD,2023-01-08 17:25:31,15.08824213,0.0002751,53.2181,268.4463,36.6446,323.4734,0.00027204,4.042e-05,0.0,0 STARLINK-3886,1 52582U 22051AY  23008.72605985  .00004042  00000-0  27204-3 0  9995,2 52582  53.2181 268.4463 0002751  36.6446 323.4734 15.08824213 37078,6917.929,95.439,541.697,537.891,0.0
52582.0,STARLINK-3886,PAYLOAD,2023-01-09 01:22:27,15.08817647,0.0002709,53.2207,266.959,44.0394,316.0814,0.00034137,5.146e-05,0.0,0 STARLINK-3886,1 52582U 22051AY  23009.05726121  .00005146  00000-0  34137-3 0  9997,2 52582  53.2207 266.9590 0002709  44.0394 316.0814 15.08817647 37192,6917.949000000001,95.439,541.688,537.94,0.0
52582.0,STARLINK-3886,PAYLOAD,2023-01-09 17:16:18,15.08831012,0.000265,53.2193,263.9848,37.118,322.9995,4.4517e-05,4.2e-06,0.0,0 STARLINK-3886,1 52582U 22051AY  23009.71966247  .00000420  00000-0  44517-4 0  9999,2 52582  53.2193 263.9848 0002650  37.1180 322.9995 15.08831012 37299,6917.908,95.438,541.606,537.94,0.0
52582.0,STARLINK-3886,PAYLOAD,2023-01-10 09:10:10,15.08832656,0.0002732,53.2186,261.0121,29.4996,330.615,3.8714e-05,3.28e-06,0.0,0 STARLINK-3886,1 52582U 22051AY  23010.38206596  .00000328  00000-0  38714-4 0  9997,2 52582  53.2186 261.0121 0002732  29.4996 330.6150 15.08832656 37322,6917.903,95.438,541.658,537.878,0.0
52582.0,STARLINK-3886,PAYLOAD,2023-01-11 01:04:02,15.08832942,0.0002742,53.2185,258.0389,31.1288,328.9866,2.5578e-05,1.19e-06,0.0,0 STARLINK-3886,1 52582U 22051AY  23011.04447030  .00000119  00000-0  25578-4 0  9993,2 52582  53.2185 258.0389 0002742  31.1288 328.9866 15.08832942 37498,6917.901999999999,95.438,541.664,537.87,0.0
52582.0,STARLINK-3886,PAYLOAD,2023-01-11 09:00:57,15.08841691,0.0003114,53.2213,256.5517,42.8674,317.256,0.0001571,2.213e-05,0.0,0 STARLINK-3886,1 52582U 22051AY  23011.37566374  .00002213  00000-0  15710-3 0  9995,2 52582  53.2213 256.5517 0003114  42.8674 317.2560 15.08841691 37547,6917.875,95.437,541.894,537.586,0.0
52582.0,STARLINK-3886,PAYLOAD,2023-01-11 15:22:29,15.08840471,0.0002896,53.2196,255.3636,38.7621,321.3579,0.00022059,3.224e-05,0.0,0 STARLINK-3886,1 52582U 22051AY  23011.64062159  .00003224  00000-0  22059-3 0  9994,2 52582  53.2196 255.3636 0002896  38.7621 321.3579 15.08840471 37516,6917.879,95.438,541.747,537.741,0.0
52582.0,STARLINK-3886,PAYLOAD,2023-01-12 15:13:18,15.08821783,0.0002749,53.2178,250.9034,38.5167,321.6021,-0.0001679,-2.958e-05,0.0,0 STARLINK-3886,1 52582U 22051AY  23012.63423811 -.00002958  00000-0 -16790-3 0  9990,2 52582  53.2178 250.9034 0002749  38.5167 321.6021 15.08821783 37733,6917.936,95.439,541.703,537.899,0.0
52582.0,STARLINK-3886,PAYLOAD,2023-01-12 21:34:50,15.0882396,0.0002691,53.2174,249.71400000000003,36.427,323.6905,-0.00026445,-4.493e-05,0.0,0 STARLINK-3886,1 52582U 22051AY  23012.89920024 -.00004493  00000-0 -26445-3 0  9990,2 52582  53.2174 249.7140 0002691  36.4270 323.6905 15.08823960 37700,6917.929,95.439,541.656,537.933,0.0
